{
  "type": "FeatureCollection",
  "features": [
    {
      "type": "Feature",
      "properties": {
        "norad_id": 37565,
        "name": "IRIDIUM 33 DEB",
        "group": "iridium-33-debris",
        "lat": 1.6905322999678891,
        "lon": 3.1916375763955345,
        "alt_km": 715.2810834642178,
        "timestamp": "2025-12-27T15:27:11.579976+00:00",
        "meta_object_name": "IRIDIUM 33 DEB",
        "meta_object_id": "1997-051YA",
        "meta_epoch": "2025-12-26T17:56:16.184256",
        "meta_mean_motion": 14.51576066,
        "meta_eccentricity": 0.00144436,
        "meta_inclination": 86.3492,
        "meta_ra_of_asc_node": 3.4741,
        "meta_arg_of_pericenter": 43.044,
        "meta_mean_anomaly": 317.1892,
        "meta_ephemeris_type": 0,
        "meta_classification_type": "U",
        "meta_norad_cat_id": 37565,
        "meta_element_set_no": 999,
        "meta_rev_at_epoch": 66040,
        "meta_bstar": 0.00060552562,
        "meta_mean_motion_dot": 2.446e-05,
        "meta_mean_motion_ddot": 0,
        "tle_line1": "1 37565U 97051YA  25360.74740954  .00002446  00000+0  60553-3 0  9991",
        "tle_line2": "2 37565  86.3492   3.4741 0014443  43.0440 317.1892 14.51576066660408"
      },
      "geometry": {
        "type": "Point",
        "coordinates": [
          3.1916375763955345,
          1.6905322999678891
        ]
      }
    },
    {
      "type": "Feature",
      "properties": {
        "norad_id": 38017,
        "name": "IRIDIUM 33 DEB",
        "group": "iridium-33-debris",
        "lat": -33.75635577603255,
        "lon": 157.29693319618355,
        "alt_km": 729.4811791029197,
        "timestamp": "2025-12-27T15:27:11.579986+00:00",
        "meta_object_name": "IRIDIUM 33 DEB",
        "meta_object_id": "1997-051YD",
        "meta_epoch": "2025-12-27T04:00:37.846080",
        "meta_mean_motion": 14.49494573,
        "meta_eccentricity": 0.00911371,
        "meta_inclination": 86.3413,
        "meta_ra_of_asc_node": 159.9553,
        "meta_arg_of_pericenter": 54.8204,
        "meta_mean_anomaly": 306.1493,
        "meta_ephemeris_type": 0,
        "meta_classification_type": "U",
        "meta_norad_cat_id": 38017,
        "meta_element_set_no": 999,
        "meta_rev_at_epoch": 61611,
        "meta_bstar": 0.0052100119,
        "meta_mean_motion_dot": 0.00021111,
        "meta_mean_motion_ddot": 0,
        "tle_line1": "1 38017U 97051YD  25361.16710470  .00021111  00000+0  52100-2 0  9999",
        "tle_line2": "2 38017  86.3413 159.9553 0091137  54.8204 306.1493 14.49494573616118"
      },
      "geometry": {
        "type": "Point",
        "coordinates": [
          157.29693319618355,
          -33.75635577603255
        ]
      }
    },
    {
      "type": "Feature",
      "properties": {
        "norad_id": 38022,
        "name": "IRIDIUM 33 DEB",
        "group": "iridium-33-debris",
        "lat": 42.99857377634596,
        "lon": 13.404882438206752,
        "alt_km": 726.1356375572532,
        "timestamp": "2025-12-27T15:27:11.579997+00:00",
        "meta_object_name": "IRIDIUM 33 DEB",
        "meta_object_id": "1997-051YJ",
        "meta_epoch": "2025-12-23T07:57:08.773056",
        "meta_mean_motion": 14.41313849,
        "meta_eccentricity": 0.00453843,
        "meta_inclination": 86.2683,
        "meta_ra_of_asc_node": 11.8042,
        "meta_arg_of_pericenter": 16.2864,
        "meta_mean_anomaly": 343.9781,
        "meta_ephemeris_type": 0,
        "meta_classification_type": "U",
        "meta_norad_cat_id": 38022,
        "meta_element_set_no": 999,
        "meta_rev_at_epoch": 69346,
        "meta_bstar": 0.0010847612,
        "meta_mean_motion_dot": 3.57e-05,
        "meta_mean_motion_ddot": 0,
        "tle_line1": "1 38022U 97051YJ  25357.33135154  .00003570  00000+0  10848-2 0  9991",
        "tle_line2": "2 38022  86.2683  11.8042 0045384  16.2864 343.9781 14.41313849693468"
      },
      "geometry": {
        "type": "Point",
        "coordinates": [
          13.404882438206752,
          42.99857377634596
        ]
      }
    },
    {
      "type": "Feature",
      "properties": {
        "norad_id": 38028,
        "name": "IRIDIUM 33 DEB",
        "group": "iridium-33-debris",
        "lat": 86.09512126469465,
        "lon": 64.10030980571976,
        "alt_km": 709.7278894003912,
        "timestamp": "2025-12-27T15:27:11.580008+00:00",
        "meta_object_name": "IRIDIUM 33 DEB",
        "meta_object_id": "1997-051YQ",
        "meta_epoch": "2025-12-19T17:44:22.316352",
        "meta_mean_motion": 14.46188799,
        "meta_eccentricity": 0.0030512,
        "meta_inclination": 86.3252,
        "meta_ra_of_asc_node": 357.2262,
        "meta_arg_of_pericenter": 99.065,
        "meta_mean_anomaly": 261.4007,
        "meta_ephemeris_type": 0,
        "meta_classification_type": "U",
        "meta_norad_cat_id": 38028,
        "meta_element_set_no": 999,
        "meta_rev_at_epoch": 65596,
        "meta_bstar": 0.00016660929,
        "meta_mean_motion_dot": 6.2e-06,
        "meta_mean_motion_ddot": 0,
        "tle_line1": "1 38028U 97051YQ  25353.73914718  .00000620  00000+0  16661-3 0  9991",
        "tle_line2": "2 38028  86.3252 357.2262 0030512  99.0650 261.4007 14.46188799655964"
      },
      "geometry": {
        "type": "Point",
        "coordinates": [
          64.10030980571976,
          86.09512126469465
        ]
      }
    },
    {
      "type": "Feature",
      "properties": {
        "norad_id": 38228,
        "name": "IRIDIUM 33 DEB",
        "group": "iridium-33-debris",
        "lat": 86.11410288956768,
        "lon": 114.74695535545366,
        "alt_km": 764.736617241263,
        "timestamp": "2025-12-27T15:27:11.580019+00:00",
        "meta_object_name": "IRIDIUM 33 DEB",
        "meta_object_id": "1997-051ZC",
        "meta_epoch": "2025-12-20T22:20:09.818016",
        "meta_mean_motion": 14.2727844,
        "meta_eccentricity": 0.0065198,
        "meta_inclination": 86.2935,
        "meta_ra_of_asc_node": 44.9869,
        "meta_arg_of_pericenter": 163.0896,
        "meta_mean_anomaly": 14.0405,
        "meta_ephemeris_type": 0,
        "meta_classification_type": "U",
        "meta_norad_cat_id": 38228,
        "meta_element_set_no": 999,
        "meta_rev_at_epoch": 84898,
        "meta_bstar": 0.00020665,
        "meta_mean_motion_dot": 5.36e-06,
        "meta_mean_motion_ddot": 0,
        "tle_line1": "1 38228U 97051ZC  25354.93066919  .00000536  00000+0  20665-3 0  9992",
        "tle_line2": "2 38228  86.2935  44.9869 0065198 163.0896  14.0405 14.27278440848980"
      },
      "geometry": {
        "type": "Point",
        "coordinates": [
          114.74695535545366,
          86.11410288956768
        ]
      }
    },
    {
      "type": "Feature",
      "properties": {
        "norad_id": 38241,
        "name": "IRIDIUM 33 DEB",
        "group": "iridium-33-debris",
        "lat": 51.41948056815174,
        "lon": -11.35497514233749,
        "alt_km": 701.5218560912372,
        "timestamp": "2025-12-27T15:27:11.580030+00:00",
        "meta_object_name": "IRIDIUM 33 DEB",
        "meta_object_id": "1997-051ZR",
        "meta_epoch": "2025-12-27T05:18:49.294368",
        "meta_mean_motion": 14.5496061,
        "meta_eccentricity": 0.0004748,
        "meta_inclination": 86.3242,
        "meta_ra_of_asc_node": 344.2091,
        "meta_arg_of_pericenter": 41.2958,
        "meta_mean_anomaly": 318.8607,
        "meta_ephemeris_type": 0,
        "meta_classification_type": "U",
        "meta_norad_cat_id": 38241,
        "meta_element_set_no": 999,
        "meta_rev_at_epoch": 60411,
        "meta_bstar": 0.00093229073,
        "meta_mean_motion_dot": 4.03e-05,
        "meta_mean_motion_ddot": 0,
        "tle_line1": "1 38241U 97051ZR  25361.22140387  .00004030  00000+0  93229-3 0  9998",
        "tle_line2": "2 38241  86.3242 344.2091 0004748  41.2958 318.8607 14.54960610604111"
      },
      "geometry": {
        "type": "Point",
        "coordinates": [
          -11.35497514233749,
          51.41948056815174
        ]
      }
    },
    {
      "type": "Feature",
      "properties": {
        "norad_id": 38474,
        "name": "IRIDIUM 33 DEB",
        "group": "iridium-33-debris",
        "lat": -40.33521863220447,
        "lon": 0.45581151440056944,
        "alt_km": 726.4770287145047,
        "timestamp": "2025-12-27T15:27:11.580041+00:00",
        "meta_object_name": "IRIDIUM 33 DEB",
        "meta_object_id": "1997-051AAB",
        "meta_epoch": "2025-12-21T07:20:31.212384",
        "meta_mean_motion": 14.50718538,
        "meta_eccentricity": 0.00276153,
        "meta_inclination": 86.3426,
        "meta_ra_of_asc_node": 6.3307,
        "meta_arg_of_pericenter": 61.1056,
        "meta_mean_anomaly": 299.2914,
        "meta_ephemeris_type": 0,
        "meta_classification_type": "U",
        "meta_norad_cat_id": 38474,
        "meta_element_set_no": 999,
        "meta_rev_at_epoch": 65442,
        "meta_bstar": 0.00039085525,
        "meta_mean_motion_dot": 1.564e-05,
        "meta_mean_motion_ddot": 0,
        "tle_line1": "1 38474U 97051AAB 25355.30591681  .00001564  00000+0  39086-3 0  9995",
        "tle_line2": "2 38474  86.3426   6.3307 0027615  61.1056 299.2914 14.50718538654425"
      },
      "geometry": {
        "type": "Point",
        "coordinates": [
          0.45581151440056944,
          -40.33521863220447
        ]
      }
    }
  ]
}